ALOS (DAICHI)           
1 28931U 06002A   26059.10821240  .00001508  00000+0  26107-3 0  9993
2 28931  98.1202  15.1131 0001325  52.4785 307.6541 14.69772709 72075
H-2A R/B                
1 28932U 06002B   26058.97441390  .00009314  00000+0  47016-3 0  9997
2 28932  98.2384 205.1659 0051920 274.4944  85.0357 15.16175608 92963
RESURS-DK 1             
1 29228U 06021A   26059.01337800  .00002601  00000+0  15446-3 0  9997
2 29228  69.9306 262.0548 0002661 167.5975 192.5256 15.12671233 86061
CZ-4B R/B               
1 29507U 06046C   26059.10980330  .00005018  00000+0  25577-3 0  9997
2 29507  97.5619 104.0444 0031859 302.2934  57.5214 15.16788202 58599
CZ-2C R/B               
1 31114U 07010B   26059.14466392  .00000119  00000+0  73903-4 0  9991
2 31114  98.3976 172.9023 0058189 322.8549  36.8609 14.20242290978363
COSMO-SKYMED 1          
1 31598U 07023A   26059.16973373  .00003056  00000+0  27458-3 0  9991
2 31598  97.8872 250.1263 0001023  81.8584 278.2753 14.96449387 13483
COSMOS 2428             
1 31792U 07029A   26058.90658845  .00000133  00000+0  96852-4 0  9996
2 31792  70.9413 223.8776 0008537 287.6832  72.3357 14.12943348962713
SL-16 R/B               
1 31793U 07029B   26059.11174409 -.00000237  00000+0 -97735-4 0  9998
2 31793  70.9756 192.5163 0002462 279.6673 253.2749 14.14834755964014
KORONAS-FOTON           
1 33504U 09003A   26059.10268154  .00012787  00000+0  28825-3 0  9998
2 33504  82.4295 285.8443 0010414 182.5261 177.5936 15.43052877944261
CZ-2C R/B               
1 37731U 11030B   26059.14487735  .00001809  00000+0  23378-3 0  9990
2 37731  97.8526  16.6006 0053321  22.9827 347.6740 14.81176570788681
H-2A R/B                
1 38341U 12025E   26059.15835120  .00004148  00000+0  37760-3 0  9998
2 38341  98.4702  25.4435 0044364 345.6465  14.3490 14.95066471746795
SHIJIAN-16 (SJ-16)      
1 39358U 13057A   26059.17636563  .00002006  00000+0  19875-3 0  9993
2 39358  74.9715 203.0957 0015878 137.1088 223.1342 14.92293179670081
