CCSDS_OMM_VERS = 2.0
CREATION_DATE  = 
ORIGINATOR     = 

OBJECT_NAME    = ALOS (DAICHI)
OBJECT_ID      = 2006-002A
CENTER_NAME    = EARTH
REF_FRAME      = TEME
TIME_SYSTEM    = UTC
MEAN_ELEMENT_THEORY = SGP/SGP4

EPOCH          = 2026-02-28T02:35:49.551360
MEAN_MOTION    = 14.69772709
ECCENTRICITY   = .0001325
INCLINATION    = 98.1202
RA_OF_ASC_NODE = 15.1131
ARG_OF_PERICENTER = 52.4785
MEAN_ANOMALY   = 307.6541

EPHEMERIS_TYPE = 0
CLASSIFICATION_TYPE = U
NORAD_CAT_ID   = 28931
ELEMENT_SET_NO = 999
REV_AT_EPOCH   = 7207
BSTAR          = .26107E-3
MEAN_MOTION_DOT = .1508E-4
MEAN_MOTION_DDOT = 0

CCSDS_OMM_VERS = 2.0
CREATION_DATE  = 
ORIGINATOR     = 

OBJECT_NAME    = H-2A R/B
OBJECT_ID      = 2006-002B
CENTER_NAME    = EARTH
REF_FRAME      = TEME
TIME_SYSTEM    = UTC
MEAN_ELEMENT_THEORY = SGP/SGP4

EPOCH          = 2026-02-27T23:23:09.360960
MEAN_MOTION    = 15.16175608
ECCENTRICITY   = .005192
INCLINATION    = 98.2384
RA_OF_ASC_NODE = 205.1659
ARG_OF_PERICENTER = 274.4944
MEAN_ANOMALY   = 85.0357

EPHEMERIS_TYPE = 0
CLASSIFICATION_TYPE = U
NORAD_CAT_ID   = 28932
ELEMENT_SET_NO = 999
REV_AT_EPOCH   = 9296
BSTAR          = .47016E-3
MEAN_MOTION_DOT = .9314E-4
MEAN_MOTION_DDOT = 0

CCSDS_OMM_VERS = 2.0
CREATION_DATE  = 
ORIGINATOR     = 

OBJECT_NAME    = RESURS-DK 1
OBJECT_ID      = 2006-021A
CENTER_NAME    = EARTH
REF_FRAME      = TEME
TIME_SYSTEM    = UTC
MEAN_ELEMENT_THEORY = SGP/SGP4

EPOCH          = 2026-02-28T00:19:15.859200
MEAN_MOTION    = 15.12671233
ECCENTRICITY   = .0002661
INCLINATION    = 69.9306
RA_OF_ASC_NODE = 262.0548
ARG_OF_PERICENTER = 167.5975
MEAN_ANOMALY   = 192.5256

EPHEMERIS_TYPE = 0
CLASSIFICATION_TYPE = U
NORAD_CAT_ID   = 29228
ELEMENT_SET_NO = 999
REV_AT_EPOCH   = 8606
BSTAR          = .15446E-3
MEAN_MOTION_DOT = .2601E-4
MEAN_MOTION_DDOT = 0

CCSDS_OMM_VERS = 2.0
CREATION_DATE  = 
ORIGINATOR     = 

OBJECT_NAME    = CZ-4B R/B
OBJECT_ID      = 2006-046C
CENTER_NAME    = EARTH
REF_FRAME      = TEME
TIME_SYSTEM    = UTC
MEAN_ELEMENT_THEORY = SGP/SGP4

EPOCH          = 2026-02-28T02:38:07.005120
MEAN_MOTION    = 15.16788202
ECCENTRICITY   = .0031859
INCLINATION    = 97.5619
RA_OF_ASC_NODE = 104.0444
ARG_OF_PERICENTER = 302.2934
MEAN_ANOMALY   = 57.5214

EPHEMERIS_TYPE = 0
CLASSIFICATION_TYPE = U
NORAD_CAT_ID   = 29507
ELEMENT_SET_NO = 999
REV_AT_EPOCH   = 5859
BSTAR          = .25577E-3
MEAN_MOTION_DOT = .5018E-4
MEAN_MOTION_DDOT = 0

CCSDS_OMM_VERS = 2.0
CREATION_DATE  = 
ORIGINATOR     = 

OBJECT_NAME    = CZ-2C R/B
OBJECT_ID      = 2007-010B
CENTER_NAME    = EARTH
REF_FRAME      = TEME
TIME_SYSTEM    = UTC
MEAN_ELEMENT_THEORY = SGP/SGP4

EPOCH          = 2026-02-28T03:28:18.962688
MEAN_MOTION    = 14.20242290
ECCENTRICITY   = .0058189
INCLINATION    = 98.3976
RA_OF_ASC_NODE = 172.9023
ARG_OF_PERICENTER = 322.8549
MEAN_ANOMALY   = 36.8609

EPHEMERIS_TYPE = 0
CLASSIFICATION_TYPE = U
NORAD_CAT_ID   = 31114
ELEMENT_SET_NO = 999
REV_AT_EPOCH   = 97836
BSTAR          = .73903E-4
MEAN_MOTION_DOT = .119E-5
MEAN_MOTION_DDOT = 0

CCSDS_OMM_VERS = 2.0
CREATION_DATE  = 
ORIGINATOR     = 

OBJECT_NAME    = COSMO-SKYMED 1
OBJECT_ID      = 2007-023A
CENTER_NAME    = EARTH
REF_FRAME      = TEME
TIME_SYSTEM    = UTC
MEAN_ELEMENT_THEORY = SGP/SGP4

EPOCH          = 2026-02-28T04:04:24.994272
MEAN_MOTION    = 14.96449387
ECCENTRICITY   = .0001023
INCLINATION    = 97.8872
RA_OF_ASC_NODE = 250.1263
ARG_OF_PERICENTER = 81.8584
MEAN_ANOMALY   = 278.2753

EPHEMERIS_TYPE = 0
CLASSIFICATION_TYPE = U
NORAD_CAT_ID   = 31598
ELEMENT_SET_NO = 999
REV_AT_EPOCH   = 1348
BSTAR          = .27458E-3
MEAN_MOTION_DOT = .3056E-4
MEAN_MOTION_DDOT = 0

CCSDS_OMM_VERS = 2.0
CREATION_DATE  = 
ORIGINATOR     = 

OBJECT_NAME    = COSMOS 2428
OBJECT_ID      = 2007-029A
CENTER_NAME    = EARTH
REF_FRAME      = TEME
TIME_SYSTEM    = UTC
MEAN_ELEMENT_THEORY = SGP/SGP4

EPOCH          = 2026-02-27T21:45:29.242080
MEAN_MOTION    = 14.12943348
ECCENTRICITY   = .0008537
INCLINATION    = 70.9413
RA_OF_ASC_NODE = 223.8776
ARG_OF_PERICENTER = 287.6832
MEAN_ANOMALY   = 72.3357

EPHEMERIS_TYPE = 0
CLASSIFICATION_TYPE = U
NORAD_CAT_ID   = 31792
ELEMENT_SET_NO = 999
REV_AT_EPOCH   = 96271
BSTAR          = .96852E-4
MEAN_MOTION_DOT = .133E-5
MEAN_MOTION_DDOT = 0

CCSDS_OMM_VERS = 2.0
CREATION_DATE  = 
ORIGINATOR     = 

OBJECT_NAME    = SL-16 R/B
OBJECT_ID      = 2007-029B
CENTER_NAME    = EARTH
REF_FRAME      = TEME
TIME_SYSTEM    = UTC
MEAN_ELEMENT_THEORY = SGP/SGP4

EPOCH          = 2026-02-28T02:40:54.689376
MEAN_MOTION    = 14.14834755
ECCENTRICITY   = .0002462
INCLINATION    = 70.9756
RA_OF_ASC_NODE = 192.5163
ARG_OF_PERICENTER = 279.6673
MEAN_ANOMALY   = 253.2749

EPHEMERIS_TYPE = 0
CLASSIFICATION_TYPE = U
NORAD_CAT_ID   = 31793
ELEMENT_SET_NO = 999
REV_AT_EPOCH   = 96401
BSTAR          = -.97735E-4
MEAN_MOTION_DOT = -.237E-5
MEAN_MOTION_DDOT = 0

CCSDS_OMM_VERS = 2.0
CREATION_DATE  = 
ORIGINATOR     = 

OBJECT_NAME    = KORONAS-FOTON
OBJECT_ID      = 2009-003A
CENTER_NAME    = EARTH
REF_FRAME      = TEME
TIME_SYSTEM    = UTC
MEAN_ELEMENT_THEORY = SGP/SGP4

EPOCH          = 2026-02-28T02:27:51.685056
MEAN_MOTION    = 15.43052877
ECCENTRICITY   = .0010414
INCLINATION    = 82.4295
RA_OF_ASC_NODE = 285.8443
ARG_OF_PERICENTER = 182.5261
MEAN_ANOMALY   = 177.5936

EPHEMERIS_TYPE = 0
CLASSIFICATION_TYPE = U
NORAD_CAT_ID   = 33504
ELEMENT_SET_NO = 999
REV_AT_EPOCH   = 94426
BSTAR          = .28825E-3
MEAN_MOTION_DOT = .12787E-3
MEAN_MOTION_DDOT = 0

CCSDS_OMM_VERS = 2.0
CREATION_DATE  = 
ORIGINATOR     = 

OBJECT_NAME    = CZ-2C R/B
OBJECT_ID      = 2011-030B
CENTER_NAME    = EARTH
REF_FRAME      = TEME
TIME_SYSTEM    = UTC
MEAN_ELEMENT_THEORY = SGP/SGP4

EPOCH          = 2026-02-28T03:28:37.403040
MEAN_MOTION    = 14.81176570
ECCENTRICITY   = .0053321
INCLINATION    = 97.8526
RA_OF_ASC_NODE = 16.6006
ARG_OF_PERICENTER = 22.9827
MEAN_ANOMALY   = 347.6740

EPHEMERIS_TYPE = 0
CLASSIFICATION_TYPE = U
NORAD_CAT_ID   = 37731
ELEMENT_SET_NO = 999
REV_AT_EPOCH   = 78868
BSTAR          = .23378E-3
MEAN_MOTION_DOT = .1809E-4
MEAN_MOTION_DDOT = 0

CCSDS_OMM_VERS = 2.0
CREATION_DATE  = 
ORIGINATOR     = 

OBJECT_NAME    = H-2A R/B
OBJECT_ID      = 2012-025E
CENTER_NAME    = EARTH
REF_FRAME      = TEME
TIME_SYSTEM    = UTC
MEAN_ELEMENT_THEORY = SGP/SGP4

EPOCH          = 2026-02-28T03:48:01.543680
MEAN_MOTION    = 14.95066471
ECCENTRICITY   = .0044364
INCLINATION    = 98.4702
RA_OF_ASC_NODE = 25.4435
ARG_OF_PERICENTER = 345.6465
MEAN_ANOMALY   = 14.3490

EPHEMERIS_TYPE = 0
CLASSIFICATION_TYPE = U
NORAD_CAT_ID   = 38341
ELEMENT_SET_NO = 999
REV_AT_EPOCH   = 74679
BSTAR          = .3776E-3
MEAN_MOTION_DOT = .4148E-4
MEAN_MOTION_DDOT = 0

CCSDS_OMM_VERS = 2.0
CREATION_DATE  = 
ORIGINATOR     = 

OBJECT_NAME    = SHIJIAN-16 (SJ-16)
OBJECT_ID      = 2013-057A
CENTER_NAME    = EARTH
REF_FRAME      = TEME
TIME_SYSTEM    = UTC
MEAN_ELEMENT_THEORY = SGP/SGP4

EPOCH          = 2026-02-28T04:13:57.990432
MEAN_MOTION    = 14.92293179
ECCENTRICITY   = .0015878
INCLINATION    = 74.9715
RA_OF_ASC_NODE = 203.0957
ARG_OF_PERICENTER = 137.1088
MEAN_ANOMALY   = 223.1342

EPHEMERIS_TYPE = 0
CLASSIFICATION_TYPE = U
NORAD_CAT_ID   = 39358
ELEMENT_SET_NO = 999
REV_AT_EPOCH   = 67008
BSTAR          = .19875E-3
MEAN_MOTION_DOT = .2006E-4
MEAN_MOTION_DDOT = 0

